{
    "links": {
        "self": "http://www.neowsapp.com/rest/v1/neo/3627007?api_key=iIulBulltgU6a56xZRHN4H3l9WmuAYTsLGpBGhQ2"
    },
    "id": "3627007",
    "neo_reference_id": "3627007",
    "name": "(2013 CH129)",
    "designation": "2013 CH129",
    "nasa_jpl_url": "http://ssd.jpl.nasa.gov/sbdb.cgi?sstr=3627007",
    "absolute_magnitude_h": 24.0,
    "estimated_diameter": {
        "kilometers": {
            "estimated_diameter_min": 0.0421264611,
            "estimated_diameter_max": 0.0941976306
        },
        "meters": {
            "estimated_diameter_min": 42.1264610556,
            "estimated_diameter_max": 94.1976305719
        },
        "miles": {
            "estimated_diameter_min": 0.0261761612,
            "estimated_diameter_max": 0.0585316759
        },
        "feet": {
            "estimated_diameter_min": 138.2101784897,
            "estimated_diameter_max": 309.0473542854
        }
    },
    "is_potentially_hazardous_asteroid": false,
    "close_approach_data": [
        {
            "close_approach_date": "2013-03-06",
            "close_approach_date_full": "2013-Mar-06 00:04",
            "epoch_date_close_approach": 1362528240000,
            "relative_velocity": {
                "kilometers_per_second": "7.2110484886",
                "kilometers_per_hour": "25959.7745589294",
                "miles_per_hour": "16130.3943641303"
            },
            "miss_distance": {
                "astronomical": "0.1386013264",
                "lunar": "53.9159159696",
                "kilometers": "20734463.208614768",
                "miles": "12883798.0081810784"
            },
            "orbiting_body": "Earth"
        }
    ],
    "orbital_data": {
        "orbit_id": "6",
        "orbit_determination_date": "2017-04-06 08:46:47",
        "first_observation_date": "2013-02-14",
        "last_observation_date": "2013-02-25",
        "data_arc_in_days": 11,
        "observations_used": 23,
        "orbit_uncertainty": "8",
        "minimum_orbit_intersection": ".134856",
        "jupiter_tisserand_invariant": "3.289",
        "epoch_osculation": "2456339.5",
        "eccentricity": ".5402862739187139",
        "semi_major_axis": "2.416161427606342",
        "inclination": "8.020818459424348",
        "ascending_node_longitude": "144.3592472339416",
        "orbital_period": "1371.789098114772",
        "perihelion_distance": "1.110742572698791",
        "perihelion_argument": "31.00222158374845",
        "aphelion_distance": "3.721580282513893",
        "perihelion_time": "2456365.276881478722",
        "mean_anomaly": "353.2353469311771",
        "mean_motion": ".2624310110750569",
        "equinox": "J2000",
        "orbit_class": {
            "orbit_class_type": "AMO",
            "orbit_class_description": "Near-Earth asteroid orbits similar to that of 1221 Amor",
            "orbit_class_range": "1.017 AU < q (perihelion) < 1.3 AU"
        }
    },
    "is_sentry_object": false
}